PHASE 3B (AO-10)        
1 14129U 83058B   21010.65471778 -.00000025  00000-0  00000-0 0  9998
2 14129  25.7687 181.0051 6069244 300.1722  13.3332  2.05871063254677
UOSAT 2 (UO-11)         
1 14781U 84021B   21012.56071578  .00000091  00000-0  17226-4 0  9993
2 14781  97.5895  20.1146 0007296 227.1791 132.8811 14.83236598962823
LUSAT (LO-19)           
1 20442U 90005G   21012.56925838 -.00000015  00000-0  11102-4 0  9994
2 20442  98.7210 326.8016 0010676 258.9794 101.0189 14.32973138618502
EYESAT A (AO-27)        
1 22825U 93061C   21012.56814065 -.00000005  00000-0  15948-4 0  9996
2 22825  98.9241  26.2971 0009295 124.8006 235.4051 14.30103348423700
ITAMSAT (IO-26)         
1 22826U 93061D   21012.57536980  .00000001  00000-0  18118-4 0  9992
2 22826  98.9182  26.2286 0009916 113.8516 246.3705 14.30440855423948
RADIO ROSTO (RS-15)     
1 23439U 94085A   21012.51972935 -.00000037  00000-0  15882-3 0  9992
2 23439  64.8178 268.1508 0155934   3.2528 356.9375 11.27570034 72753
JAS-2 (FO-29)           
1 24278U 96046B   21012.50234994 -.00000027  00000-0  85134-5 0  9996
2 24278  98.5853 101.0330 0350225 193.4438 165.7184 13.53101655205155
TECHSAT 1B (GO-32)      
1 25397U 98043D   21012.45685702 -.00000026  00000-0  80384-5 0  9990
2 25397  98.7536 318.5926 0001711 136.3174 223.8140 14.23699099169294
ISS (ZARYA)             
1 25544U 98067A   21012.86970087  .00001181  00000-0  29283-4 0  9990
2 25544  51.6465  30.9567 0000441 216.7337 202.8835 15.49283079264522
PCSAT (NO-44)           
1 26931U 01043C   21012.55593254 -.00000031  00000-0  19894-4 0  9993
2 26931  67.0524 322.7713 0007437 272.2585  87.7665 14.30602357  6943
SAUDISAT 1C (SO-50)     
1 27607U 02058C   21012.57271402  .00000000  00000-0  20281-4 0  9998
2 27607  64.5560  94.9926 0029368  91.1564 269.2903 14.75701671971572
CUTE-1 (CO-55)          
1 27844U 03031E   21012.58399582  .00000055  00000-0  44537-4 0  9994
2 27844  98.6815  23.1526 0010132 164.5146 195.6344 14.22281651909829
CUBESAT XI-IV (CO-57)   
1 27848U 03031J   21012.53101388  .00000037  00000-0  36457-4 0  9990
2 27848  98.6876  23.6684 0009784 177.1762 182.9473 14.21862481909653
MOZHAYETS 4 (RS-22)     
1 27939U 03042A   21012.72925714  .00000060  00000-0  19392-4 0  9996
2 27939  98.1157 151.1515 0013942  56.2663 303.9877 14.66932000924697
CUBESAT XI-V            
1 28895U 05043F   21012.30950496  .00000119  00000-0  31777-4 0  9996
2 28895  98.0356 149.1931 0016304 346.7148  13.3623 14.63852705811166
CUTE-1.7+APD II (CO-65) 
1 32785U 08021C   21012.86255942  .00000240  00000-0  31367-4 0  9993
2 32785  97.5940 357.9184 0013589 153.0560 207.1366 14.88610080689097
DELFI-C3 (DO-64)        
1 32789U 08021G   21012.55167660  .00001255  00000-0  84581-4 0  9995
2 32789  97.3953  53.8242 0010840 324.3937  35.6568 15.08383745693325
SEEDS II (CO-66)        
1 32791U 08021J   21012.69983483  .00000426  00000-0  48147-4 0  9999
2 32791  97.5569   3.8070 0014502 121.7063 238.5572 14.91244756689643
YUBILEINY (RS-30)       
1 32953U 08025A   21012.65374300  .00000028  00000-0  12906-3 0  9992
2 32953  82.5042 147.8301 0018674 318.0244  41.9399 12.43099489573624
KKS-1 (KISEKI)          
1 33499U 09002H   21012.85191186  .00000124  00000-0  26088-4 0  9999
2 33499  98.2895 239.1370 0009194 169.7412 190.3986 14.75605968643896
SWISSCUBE               
1 35932U 09051B   21012.82387878  .00000140  00000-0  42536-4 0  9993
2 35932  98.6066 207.8706 0007202 197.7935 162.3011 14.56475544600343
BEESAT-1                
1 35933U 09051C   21012.52126606  .00000114  00000-0  36572-4 0  9995
2 35933  98.6044 209.4150 0005158 210.2064 149.8836 14.56540887600330
ITUPSAT1                
1 35935U 09051E   21012.50162379  .00000109  00000-0  36235-4 0  9992
2 35935  98.6149 209.5623 0007476 213.1328 146.9401 14.55679290600082
XIWANG-1 (HOPE-1)       
1 36122U 09072B   21012.41714878 -.00000021  00000-0  55096-4 0  9991
2 36122 100.1124 359.6766 0008206 102.3199 257.8837 13.16358626532368
JUGNU                   
1 37839U 11058B   21012.56424918  .00000316  00000-0  26547-4 0  9998
2 37839  19.9617  94.6105 0018812 173.1182 216.1846 14.12700158478391
SRMSAT                  
1 37841U 11058D   21012.59880847  .00000292  00000-0  15259-4 0  9992
2 37841  19.9707 163.0581 0011954  21.8054  58.6196 14.10682830477693
M-CUBED & EXP-1 PRIME   
1 37855U 11061F   21012.50419464  .00002913  00000-0  14780-3 0  9994
2 37855 101.7255 215.0254 0168656 174.3163 186.0017 15.07076467502684
STRAND-1                
1 39090U 13009E   21012.51655738  .00000030  00000-0  25411-4 0  9990
2 39090  98.4368 218.2776 0009660  28.9532 331.2187 14.35163426412674
SOMP                    
1 39134U 13015E   21012.28171885  .00001952  00000-0  94265-4 0  9993
2 39134  64.8634 320.0508 0013392 219.4039 140.6116 15.21865761427449
BEESAT-3                
1 39135U 13015F   21012.42033190  .00001519  00000-0  81945-4 0  9996
2 39135  64.8678 346.2860 0018766 209.2314 150.7764 15.18820920426941
BEESAT-2                
1 39136U 13015G   21012.41972247  .00001388  00000-0  76657-4 0  9999
2 39136  64.8742 352.0496 0029632 263.7464  96.0287 15.18198709426821
ZACUBE-1 (TSHEPISOSAT)  
1 39417U 13066B   21012.69736171  .00000314  00000-0  45629-4 0  9994
2 39417  97.5787   5.2352 0057637 312.8593  46.7787 14.81407314386015
GOMX-1                  
1 39430U 13066Q   21012.77609052  .00000129  00000-0  32716-4 0  9992
2 39430  97.8076 304.8354 0149323 245.1375 113.4251 14.59520275380338
CUBEBUG-2 (LO-74)       
1 39440U 13066AA  21012.82223650  .00000345  00000-0  54509-4 0  9999
2 39440  97.6561 350.0440 0080546  21.5250 338.9315 14.76139034384667
FUNCUBE-1 (AO-73)       
1 39444U 13066AE  21012.70805676  .00000370  00000-0  51514-4 0  9995
2 39444  97.5708   7.5702 0056576 303.8265  55.7571 14.82291205384952
UWE-3                   
1 39446U 13066AG  21012.85840034  .00000314  00000-0  48094-4 0  9997
2 39446  97.6193 357.1556 0069523 347.9499  12.0046 14.78674940384104
SPROUT                  
1 39770U 14029E   21012.76511145  .00000840  00000-0  97325-4 0  9990
2 39770  97.9070 124.3404 0009114   7.6740 352.4603 14.88122337360187
UNISAT-6                
1 40012U 14033C   21012.53194307  .00000214  00000-0  38811-4 0  9998
2 40012  97.6869 223.0162 0059176  45.4960 315.1063 14.74225053353223
DUCHIFAT-1              
1 40021U 14033M   21012.79753784  .00000404  00000-0  46615-4 0  9998
2 40021  97.9599 311.4939 0012049 323.1549  36.8839 14.91142291357084
QB50P1                  
1 40025U 14033R   21012.75504335  .00000369  00000-0  44951-4 0  9995
2 40025  97.9259 303.1258 0011889 337.1221  22.9464 14.89303028356753
NUDT-PHONESAT           
1 40900U 15049B   21012.82438115  .00002793  00000-0  11372-3 0  9998
2 40900  97.4260  28.0409 0011501 335.3537 102.0750 15.25289590295099
ZDPS 2A                 
1 40901U 15049C   21012.82045936  .00001478  00000-0  73963-4 0  9998
2 40901  97.4628  21.8396 0013687  11.5083  91.5471 15.18922397294340
ZDPS 2B                 
1 40902U 15049D   21012.80218291  .00001655  00000-0  82356-4 0  9996
2 40902  97.4641  19.1042 0013643   9.3329  92.5304 15.18937848294314
XW-2A                   
1 40903U 15049E   21012.83650646  .00002392  00000-0  53942-4 0  9992
2 40903  97.2609  67.7040 0011424 215.8962 232.9624 15.44198629298770
KAITUO 1A               
1 40904U 15049F   21012.85221289  .00000620  00000-0  35744-4 0  9994
2 40904  97.4827  16.8130 0015278  23.6533  76.2607 15.15960748293963
2015-049G               
1 40905U 15049G   21012.82999789  .00000296  00000-0  19461-4 0  9996
2 40905  97.4939  13.9128 0016347  21.6596  61.8995 15.14786873293771
XW-2C                   
1 40906U 15049H   21012.79806623  .00000856  00000-0  47383-4 0  9993
2 40906  97.4822  17.1666 0015117  14.6953 158.7368 15.16422978293976
XW-2D                   
1 40907U 15049J   21012.80643896  .00000984  00000-0  53565-4 0  9998
2 40907  97.4814  16.9231 0014633  11.4205  70.9514 15.16701776294009
LILACSAT-2              
1 40908U 15049K   21012.80342404  .00000606  00000-0  36663-4 0  9991
2 40908  97.4990  14.9847 0016599  23.9147  59.1112 15.14251638293672
XW-2F                   
1 40910U 15049M   21012.82499412  .00001236  00000-0  63081-4 0  9992
2 40910  97.4707  19.8183 0014601 359.2756  78.7282 15.18510313294107
XW-2B                   
1 40911U 15049N   21012.80016598  .00001048  00000-0  56928-4 0  9994
2 40911  97.4815  17.6131 0014439  12.4504  65.9062 15.16623370293890
KAITUO 1B               
1 40912U 15049P   21012.81487461  .00001528  00000-0  71961-4 0  9994
2 40912  97.4472  24.1225 0013911 334.0484 103.2584 15.20979872294534
TIANWANG 1C (TW-1C)     
1 40926U 15051B   21012.83959252  .00126442  00000-0  47177-3 0  9990
2 40926  97.0515  73.6855 0002402  23.9009  65.8503 15.87642577299936
TIANWANG 1A (TW-1A)     
1 40928U 15051D   21012.85011284  .00003520  00000-0  78296-4 0  9996
2 40928  97.0926  41.5399 0011116 134.3777  38.9286 15.44243422297668
LAPAN-A2                
1 40931U 15052B   21011.10677693  .00000596  00000-0 -62478-5 0  9997
2 40931   6.0041 294.5153 0013898 335.0846  24.8978 14.76657660286009
E-ST@R-II               
1 41459U 16025D   21012.84835674  .00001580  00000-0  82232-4 0  9993
2 41459  98.1194 140.0995 0161518 226.4875 132.2839 15.07239154258977
AAUSAT 4                
1 41460U 16025E   21012.84374869  .00003248  00000-0  15757-3 0  9999
2 41460  98.1181 143.2365 0149979 212.6171 146.5772 15.09931397259227
NUSAT-1 (FRESCO)        
1 41557U 16033B   21012.78574851  .00001540  00000-0  57619-4 0  9998
2 41557  97.3989 107.6829 0014797  69.6837  45.8130 15.28759389257742
BEESAT-4                
1 41619U 16040W   21012.43984062  .00002087  00000-0  86878-4 0  9992
2 41619  97.2935  72.7805 0011539 155.0648 205.1149 15.24784445241233
